{
  "type": "FeatureCollection",
  "features": [
    {
      "type": "Feature",
      "properties": {
        "norad_id": 38474,
        "name": "IRIDIUM 33 DEB",
        "group": "iridium-33-debris",
        "lat": 61.580188730971216,
        "lon": -179.4361182074745,
        "alt_km": 704.6441658604945,
        "timestamp": "2025-12-18T23:35:49.448200+00:00",
        "meta_object_name": "IRIDIUM 33 DEB",
        "meta_object_id": "1997-051AAB",
        "meta_epoch": "2025-12-13T08:58:04.646496",
        "meta_mean_motion": 14.5069505,
        "meta_eccentricity": 0.00282612,
        "meta_inclination": 86.3454,
        "meta_ra_of_asc_node": 9.789,
        "meta_arg_of_pericenter": 86.1077,
        "meta_mean_anomaly": 274.3358,
        "meta_ephemeris_type": 0,
        "meta_classification_type": "U",
        "meta_norad_cat_id": 38474,
        "meta_element_set_no": 999,
        "meta_rev_at_epoch": 65327,
        "meta_bstar": 0.00084561127,
        "meta_mean_motion_dot": 3.359e-05,
        "meta_mean_motion_ddot": 0,
        "tle_line1": "1 38474U 97051AAB 25347.37366489  .00003359  00000+0  84561-3 0  9991",
        "tle_line2": "2 38474  86.3454   9.7890 0028261  86.1077 274.3358 14.50695050653279"
      },
      "geometry": {
        "type": "Point",
        "coordinates": [
          -179.4361182074745,
          61.580188730971216
        ]
      }
    },
    {
      "type": "Feature",
      "properties": {
        "norad_id": 39777,
        "name": "IRIDIUM 33 DEB",
        "group": "iridium-33-debris",
        "lat": -64.72343430765646,
        "lon": 163.4103093872259,
        "alt_km": 738.5609346046904,
        "timestamp": "2025-12-18T23:35:49.448210+00:00",
        "meta_object_name": "IRIDIUM 33 DEB",
        "meta_object_id": "1997-051AAJ",
        "meta_epoch": "2025-12-17T11:37:29.440128",
        "meta_mean_motion": 14.56536598,
        "meta_eccentricity": 0.00601884,
        "meta_inclination": 85.9622,
        "meta_ra_of_asc_node": 172.7412,
        "meta_arg_of_pericenter": 170.5587,
        "meta_mean_anomaly": 189.6768,
        "meta_ephemeris_type": 0,
        "meta_classification_type": "U",
        "meta_norad_cat_id": 39777,
        "meta_element_set_no": 999,
        "meta_rev_at_epoch": 60254,
        "meta_bstar": 0.0020288102,
        "meta_mean_motion_dot": 9.279e-05,
        "meta_mean_motion_ddot": 0,
        "tle_line1": "1 39777U 97051AAJ 25351.48436852  .00009279  00000+0  20288-2 0  9999",
        "tle_line2": "2 39777  85.9622 172.7412 0060188 170.5587 189.6768 14.56536598602541"
      },
      "geometry": {
        "type": "Point",
        "coordinates": [
          163.4103093872259,
          -64.72343430765646
        ]
      }
    },
    {
      "type": "Feature",
      "properties": {
        "norad_id": 39778,
        "name": "IRIDIUM 33 DEB",
        "group": "iridium-33-debris",
        "lat": 79.02726328721288,
        "lon": 59.586206883936455,
        "alt_km": 701.5110999066728,
        "timestamp": "2025-12-18T23:35:49.448221+00:00",
        "meta_object_name": "IRIDIUM 33 DEB",
        "meta_object_id": "1997-051AAK",
        "meta_epoch": "2025-12-18T10:01:19.260192",
        "meta_mean_motion": 14.5430124,
        "meta_eccentricity": 0.00073585,
        "meta_inclination": 86.3776,
        "meta_ra_of_asc_node": 40.7612,
        "meta_arg_of_pericenter": 24.7507,
        "meta_mean_anomaly": 335.4052,
        "meta_ephemeris_type": 0,
        "meta_classification_type": "U",
        "meta_norad_cat_id": 39778,
        "meta_element_set_no": 999,
        "meta_rev_at_epoch": 60775,
        "meta_bstar": 0.00067163185,
        "meta_mean_motion_dot": 2.869e-05,
        "meta_mean_motion_ddot": 0,
        "tle_line1": "1 39778U 97051AAK 25352.41758403  .00002869  00000+0  67163-3 0  9995",
        "tle_line2": "2 39778  86.3776  40.7612 0007358  24.7507 335.4052 14.54301240607752"
      },
      "geometry": {
        "type": "Point",
        "coordinates": [
          59.586206883936455,
          79.02726328721288
        ]
      }
    },
    {
      "type": "Feature",
      "properties": {
        "norad_id": 39781,
        "name": "IRIDIUM 33 DEB",
        "group": "iridium-33-debris",
        "lat": 19.897163549433362,
        "lon": 74.09010299486687,
        "alt_km": 828.1722980385011,
        "timestamp": "2025-12-18T23:35:49.448231+00:00",
        "meta_object_name": "IRIDIUM 33 DEB",
        "meta_object_id": "1997-051AAN",
        "meta_epoch": "2025-12-15T00:15:44.903232",
        "meta_mean_motion": 14.2070789,
        "meta_eccentricity": 0.01756389,
        "meta_inclination": 86.371,
        "meta_ra_of_asc_node": 257.043,
        "meta_arg_of_pericenter": 266.0338,
        "meta_mean_anomaly": 111.7662,
        "meta_ephemeris_type": 0,
        "meta_classification_type": "U",
        "meta_norad_cat_id": 39781,
        "meta_element_set_no": 999,
        "meta_rev_at_epoch": 8139,
        "meta_bstar": 0.0031777078,
        "meta_mean_motion_dot": 8.021e-05,
        "meta_mean_motion_ddot": 0,
        "tle_line1": "1 39781U 97051AAN 25349.01093638  .00008021  00000+0  31777-2 0  9990",
        "tle_line2": "2 39781  86.3710 257.0430 0175638 266.0338 111.7662 14.20707890 81397"
      },
      "geometry": {
        "type": "Point",
        "coordinates": [
          74.09010299486687,
          19.897163549433362
        ]
      }
    },
    {
      "type": "Feature",
      "properties": {
        "norad_id": 40996,
        "name": "IRIDIUM 33 DEB",
        "group": "iridium-33-debris",
        "lat": -50.88315035018364,
        "lon": -177.0064696098674,
        "alt_km": 592.3846924587715,
        "timestamp": "2025-12-18T23:35:49.448241+00:00",
        "meta_object_name": "IRIDIUM 33 DEB",
        "meta_object_id": "1997-051ABJ",
        "meta_epoch": "2025-12-18T00:14:16.083168",
        "meta_mean_motion": 14.9656984,
        "meta_eccentricity": 0.00115339,
        "meta_inclination": 86.351,
        "meta_ra_of_asc_node": 358.9473,
        "meta_arg_of_pericenter": 49.1096,
        "meta_mean_anomaly": 341.4497,
        "meta_ephemeris_type": 0,
        "meta_classification_type": "U",
        "meta_norad_cat_id": 40996,
        "meta_element_set_no": 999,
        "meta_rev_at_epoch": 62567,
        "meta_bstar": 0.0021994706,
        "meta_mean_motion_dot": 0.00025142,
        "meta_mean_motion_ddot": 0,
        "tle_line1": "1 40996U 97051ABJ 25352.00990837  .00025142  00000+0  21995-2 0  9994",
        "tle_line2": "2 40996  86.3510 358.9473 0011533  49.1096 341.4497 14.96569840625674"
      },
      "geometry": {
        "type": "Point",
        "coordinates": [
          -177.0064696098674,
          -50.88315035018364
        ]
      }
    },
    {
      "type": "Feature",
      "properties": {
        "norad_id": 40998,
        "name": "IRIDIUM 33 DEB",
        "group": "iridium-33-debris",
        "lat": -72.92429184609476,
        "lon": -117.12741936143775,
        "alt_km": 755.6137548498682,
        "timestamp": "2025-12-18T23:35:49.448252+00:00",
        "meta_object_name": "IRIDIUM 33 DEB",
        "meta_object_id": "1997-051ABL",
        "meta_epoch": "2025-12-17T22:19:42.919968",
        "meta_mean_motion": 14.45114717,
        "meta_eccentricity": 0.00092833,
        "meta_inclination": 86.383,
        "meta_ra_of_asc_node": 51.4388,
        "meta_arg_of_pericenter": 70.6878,
        "meta_mean_anomaly": 108.7,
        "meta_ephemeris_type": 0,
        "meta_classification_type": "U",
        "meta_norad_cat_id": 40998,
        "meta_element_set_no": 999,
        "meta_rev_at_epoch": 6756,
        "meta_bstar": 0.00036218128,
        "meta_mean_motion_dot": 1.286e-05,
        "meta_mean_motion_ddot": 0,
        "tle_line1": "1 40998U 97051ABL 25351.93035787  .00001286  00000+0  36218-3 0  9999",
        "tle_line2": "2 40998  86.3830  51.4388 0009283  70.6878 108.7000 14.45114717 67562"
      },
      "geometry": {
        "type": "Point",
        "coordinates": [
          -117.12741936143775,
          -72.92429184609476
        ]
      }
    },
    {
      "type": "Feature",
      "properties": {
        "norad_id": 46435,
        "name": "IRIDIUM 33 DEB",
        "group": "iridium-33-debris",
        "lat": -15.655535281598745,
        "lon": 12.306841302835236,
        "alt_km": 711.9205782149447,
        "timestamp": "2025-12-18T23:35:49.448262+00:00",
        "meta_object_name": "IRIDIUM 33 DEB",
        "meta_object_id": "1997-051ABN",
        "meta_epoch": "2025-12-13T20:22:29.882208",
        "meta_mean_motion": 14.32399442,
        "meta_eccentricity": 0.0208315,
        "meta_inclination": 86.2839,
        "meta_ra_of_asc_node": 193.4722,
        "meta_arg_of_pericenter": 272.7642,
        "meta_mean_anomaly": 103.0816,
        "meta_ephemeris_type": 0,
        "meta_classification_type": "U",
        "meta_norad_cat_id": 46435,
        "meta_element_set_no": 999,
        "meta_rev_at_epoch": 7932,
        "meta_bstar": 0.009141333,
        "meta_mean_motion_dot": 0.00031559,
        "meta_mean_motion_ddot": 0,
        "tle_line1": "1 46435U 97051ABN 25347.84895697  .00031559  00000+0  91413-2 0  9993",
        "tle_line2": "2 46435  86.2839 193.4722 0208315 272.7642 103.0816 14.32399442 79328"
      },
      "geometry": {
        "type": "Point",
        "coordinates": [
          12.306841302835236,
          -15.655535281598745
        ]
      }
    }
  ]
}